{"type": "FeatureCollection", "features": [ {"type": "Feature", "properties": {"norad_id": 34400, "name": "COSMOS 2251 DEB", "group": "cosmos-2251-debris", "lat": -52.98202482412674, "lon": -115.9318511977699, "alt_km": 422.16826994874737, "timestamp": "2025-12-04T10:51:50.500160+00:00", "meta": {"OBJECT_NAME": "COSMOS 2251 DEB", "OBJECT_ID": "1993-036QR", "EPOCH": "2025-12-04T03:38:47.169312", "MEAN_MOTION": 15.48777822, "ECCENTRICITY": 0.0007483, "INCLINATION": 73.9696, "RA_OF_ASC_NODE": 42.3143, "ARG_OF_PERICENTER": 270.1074, "MEAN_ANOMALY": 89.9281, "EPHEMERIS_TYPE": 0, "CLASSIFICATION_TYPE": "U", "NORAD_CAT_ID": 34400, "ELEMENT_SET_NO": 999, "REV_AT_EPOCH": 89841, "BSTAR": 0.0053785, "MEAN_MOTION_DOT": 0.00300555, "MEAN_MOTION_DDOT": 0}, "tle": {"line1": "1 34400U 93036QR  25338.15193483  .00300555  00000+0  53785-2 0  9994", "line2": "2 34400  73.9696  42.3143 0007483 270.1074  89.9281 15.48777822898411"}}, "geometry": {"type": "Point", "coordinates": [-115.9318511977699, -52.98202482412674]}}, {"type": "Feature", "properties": {"norad_id": 34409, "name": "COSMOS 2251 DEB", "group": "cosmos-2251-debris", "lat": 37.740628312721824, "lon": -24.644760358504097, "alt_km": 640.2873471302173, "timestamp": "2025-12-04T10:51:50.500171+00:00", "meta": {"OBJECT_NAME": "COSMOS 2251 DEB", "OBJECT_ID": "1993-036RA", "EPOCH": "2025-12-04T01:05:33.935424", "MEAN_MOTION": 14.57994165, "ECCENTRICITY": 0.0079481, "INCLINATION": 74.0627, "RA_OF_ASC_NODE": 323.35, "ARG_OF_PERICENTER": 40.0498, "MEAN_ANOMALY": 23.4751, "EPHEMERIS_TYPE": 0, "CLASSIFICATION_TYPE": "U", "NORAD_CAT_ID": 34409, "ELEMENT_SET_NO": 999, "REV_AT_EPOCH": 89066, "BSTAR": 0.00041979, "MEAN_MOTION_DOT": 1.984e-05, "MEAN_MOTION_DDOT": 0}, "tle": {"line1": "1 34409U 93036RA  25338.04553166  .00001984  00000+0  41979-3 0  9996", "line2": "2 34409  74.0627 323.3500 0079481  40.0498  23.4751 14.57994165890660"}}, "geometry": {"type": "Point", "coordinates": [-24.644760358504097, 37.740628312721824]}}, {"type": "Feature", "properties": {"norad_id": 34410, "name": "COSMOS 2251 DEB", "group": "cosmos-2251-debris", "lat": 71.02251317142387, "lon": -22.540038622543673, "alt_km": 494.82515064657673, "timestamp": "2025-12-04T10:51:50.500181+00:00", "meta": {"OBJECT_NAME": "COSMOS 2251 DEB", "OBJECT_ID": "1993-036RB", "EPOCH": "2025-12-03T22:08:19.253184", "MEAN_MOTION": 15.17562106, "ECCENTRICITY": 0.0020723, "INCLINATION": 73.7392, "RA_OF_ASC_NODE": 280.509, "ARG_OF_PERICENTER": 121.9342, "MEAN_ANOMALY": 302.742, "EPHEMERIS_TYPE": 0, "CLASSIFICATION_TYPE": "U", "NORAD_CAT_ID": 34410, "ELEMENT_SET_NO": 999, "REV_AT_EPOCH": 89640, "BSTAR": 0.004684, "MEAN_MOTION_DOT": 0.00095812, "MEAN_MOTION_DDOT": 0}, "tle": {"line1": "1 34410U 93036RB  25337.92244506  .00095812  00000+0  46840-2 0  9993", "line2": "2 34410  73.7392 280.5090 0020723 121.9342 302.7420 15.17562106896404"}}, "geometry": {"type": "Point", "coordinates": [-22.540038622543673, 71.02251317142387]}}, {"type": "Feature", "properties": {"norad_id": 34412, "name": "COSMOS 2251 DEB", "group": "cosmos-2251-debris", "lat": -35.20695347525825, "lon": 171.9151566179234, "alt_km": 841.5086956924843, "timestamp": "2025-12-04T10:51:50.500192+00:00", "meta": {"OBJECT_NAME": "COSMOS 2251 DEB", "OBJECT_ID": "1993-036RD", "EPOCH": "2025-12-03T10:39:06.052320", "MEAN_MOTION": 14.46988265, "ECCENTRICITY": 0.01871303, "INCLINATION": 73.9477, "RA_OF_ASC_NODE": 342.0894, "ARG_OF_PERICENTER": 79.4118, "MEAN_ANOMALY": 282.8057, "EPHEMERIS_TYPE": 0, "CLASSIFICATION_TYPE": "U", "NORAD_CAT_ID": 34412, "ELEMENT_SET_NO": 999, "REV_AT_EPOCH": 87516, "BSTAR": 0.0011167847, "MEAN_MOTION_DOT": 5.031e-05, "MEAN_MOTION_DDOT": 0}, "tle": {"line1": "1 34412U 93036RD  25337.44382005  .00005031  00000+0  11168-2 0  9998", "line2": "2 34412  73.9477 342.0894 0187130  79.4118 282.8057 14.46988265875165"}}, "geometry": {"type": "Point", "coordinates": [171.9151566179234, -35.20695347525825]}}, {"type": "Feature", "properties": {"norad_id": 34413, "name": "COSMOS 2251 DEB", "group": "cosmos-2251-debris", "lat": 14.614936701743096, "lon": 95.64570729784039, "alt_km": 858.9412377079088, "timestamp": "2025-12-04T10:51:50.500203+00:00", "meta": {"OBJECT_NAME": "COSMOS 2251 DEB", "OBJECT_ID": "1993-036RE", "EPOCH": "2025-12-03T07:48:21.134304", "MEAN_MOTION": 14.28961442, "ECCENTRICITY": 0.0090642, "INCLINATION": 74.0314, "RA_OF_ASC_NODE": 281.9739, "ARG_OF_PERICENTER": 0.215, "MEAN_ANOMALY": 126.7484, "EPHEMERIS_TYPE": 0, "CLASSIFICATION_TYPE": "U", "NORAD_CAT_ID": 34413, "ELEMENT_SET_NO": 999, "REV_AT_EPOCH": 86996, "BSTAR": 0.0025562, "MEAN_MOTION_DOT": 6.734e-05, "MEAN_MOTION_DDOT": 0}, "tle": {"line1": "1 34413U 93036RE  25337.32524461  .00006734  00000+0  25562-2 0  9994", "line2": "2 34413  74.0314 281.9739 0090642   0.2150 126.7484 14.28961442869965"}}, "geometry": {"type": "Point", "coordinates": [95.64570729784039, 14.614936701743096]}}, {"type": "Feature", "properties": {"norad_id": 34420, "name": "COSMOS 2251 DEB", "group": "cosmos-2251-debris", "lat": 12.524153150264196, "lon": -63.65858281600203, "alt_km": 648.7298332705259, "timestamp": "2025-12-04T10:51:50.500213+00:00", "meta": {"OBJECT_NAME": "COSMOS 2251 DEB", "OBJECT_ID": "1993-036RM", "EPOCH": "2025-12-04T04:22:05.073024", "MEAN_MOTION": 14.68257213, "ECCENTRICITY": 0.0106941, "INCLINATION": 74.032, "RA_OF_ASC_NODE": 120.5115, "ARG_OF_PERICENTER": 243.6031, "MEAN_ANOMALY": 294.3695, "EPHEMERIS_TYPE": 0, "CLASSIFICATION_TYPE": "U", "NORAD_CAT_ID": 34420, "ELEMENT_SET_NO": 999, "REV_AT_EPOCH": 89644, "BSTAR": 0.00042096, "MEAN_MOTION_DOT": 2.611e-05, "MEAN_MOTION_DDOT": 0}, "tle": {"line1": "1 34420U 93036RM  25338.18200316  .00002611  00000+0  42096-3 0  9999", "line2": "2 34420  74.0320 120.5115 0106941 243.6031 294.3695 14.68257213896444"}}, "geometry": {"type": "Point", "coordinates": [-63.65858281600203, 12.524153150264196]}}, {"type": "Feature", "properties": {"norad_id": 34425, "name": "COSMOS 2251 DEB", "group": "cosmos-2251-debris", "lat": 70.95460703756797, "lon": 126.50354407588878, "alt_km": 688.0969096277367, "timestamp": "2025-12-04T10:51:50.500223+00:00", "meta": {"OBJECT_NAME": "COSMOS 2251 DEB", "OBJECT_ID": "1993-036RS", "EPOCH": "2025-12-03T13:09:04.556160", "MEAN_MOTION": 14.62033992, "ECCENTRICITY": 0.00255022, "INCLINATION": 74.0206, "RA_OF_ASC_NODE": 72.1322, "ARG_OF_PERICENTER": 200.5723, "MEAN_ANOMALY": 159.4419, "EPHEMERIS_TYPE": 0, "CLASSIFICATION_TYPE": "U", "NORAD_CAT_ID": 34425, "ELEMENT_SET_NO": 999, "REV_AT_EPOCH": 88606, "BSTAR": 0.0010137044, "MEAN_MOTION_DOT": 5.083e-05, "MEAN_MOTION_DDOT": 0}, "tle": {"line1": "1 34425U 93036RS  25337.54796940  .00005083  00000+0  10137-2 0  9992", "line2": "2 34425  74.0206  72.1322 0025502 200.5723 159.4419 14.62033992886069"}}, "geometry": {"type": "Point", "coordinates": [126.50354407588878, 70.95460703756797]}}, {"type": "Feature", "properties": {"norad_id": 34429, "name": "COSMOS 2251 DEB", "group": "cosmos-2251-debris", "lat": -10.13697183285014, "lon": -176.9683448881614, "alt_km": 454.97040820647726, "timestamp": "2025-12-04T10:51:50.500234+00:00", "meta": {"OBJECT_NAME": "COSMOS 2251 DEB", "OBJECT_ID": "1993-036RW", "EPOCH": "2025-12-03T20:54:28.656000", "MEAN_MOTION": 15.37130972, "ECCENTRICITY": 0.0005779, "INCLINATION": 73.973, "RA_OF_ASC_NODE": 187.2334, "ARG_OF_PERICENTER": 40.3696, "MEAN_ANOMALY": 332.4742, "EPHEMERIS_TYPE": 0, "CLASSIFICATION_TYPE": "U", "NORAD_CAT_ID": 34429, "ELEMENT_SET_NO": 999, "REV_AT_EPOCH": 89312, "BSTAR": 0.0076415, "MEAN_MOTION_DOT": 0.0028878, "MEAN_MOTION_DDOT": 0}, "tle": {"line1": "1 34429U 93036RW  25337.87116500  .00288780  00000+0  76415-2 0  9998", "line2": "2 34429  73.9730 187.2334 0005779  40.3696 332.4742 15.37130972893123"}}, "geometry": {"type": "Point", "coordinates": [-176.9683448881614, -10.13697183285014]}}, {"type": "Feature", "properties": {"norad_id": 34430, "name": "COSMOS 2251 DEB", "group": "cosmos-2251-debris", "lat": 7.809540458637906, "lon": 136.40476295528936, "alt_km": 794.7024316351317, "timestamp": "2025-12-04T10:51:50.500244+00:00", "meta": {"OBJECT_NAME": "COSMOS 2251 DEB", "OBJECT_ID": "1993-036RX", "EPOCH": "2025-12-04T00:03:56.039616", "MEAN_MOTION": 14.39589148, "ECCENTRICITY": 0.0059925, "INCLINATION": 74.0511, "RA_OF_ASC_NODE": 319.4823, "ARG_OF_PERICENTER": 31.3534, "MEAN_ANOMALY": 329.117, "EPHEMERIS_TYPE": 0, "CLASSIFICATION_TYPE": "U", "NORAD_CAT_ID": 34430, "ELEMENT_SET_NO": 999, "REV_AT_EPOCH": 87829, "BSTAR": 0.000821, "MEAN_MOTION_DOT": 2.594e-05, "MEAN_MOTION_DDOT": 0}, "tle": {"line1": "1 34430U 93036RX  25338.00273194  .00002594  00000+0  82100-3 0  9995", "line2": "2 34430  74.0511 319.4823 0059925  31.3534 329.1170 14.39589148878292"}}, "geometry": {"type": "Point", "coordinates": [136.40476295528936, 7.809540458637906]}}, {"type": "Feature", "properties": {"norad_id": 34431, "name": "COSMOS 2251 DEB", "group": "cosmos-2251-debris", "lat": 34.595384333663375, "lon": -158.44281045599146, "alt_km": 831.9642535671392, "timestamp": "2025-12-04T10:51:50.500271+00:00", "meta": {"OBJECT_NAME": "COSMOS 2251 DEB", "OBJECT_ID": "1993-036RY", "EPOCH": "2025-12-04T00:36:36.466848", "MEAN_MOTION": 14.2873436, "ECCENTRICITY": 0.0068703, "INCLINATION": 74.0741, "RA_OF_ASC_NODE": 190.9722, "ARG_OF_PERICENTER": 179.0094, "MEAN_ANOMALY": 181.1205, "EPHEMERIS_TYPE": 0, "CLASSIFICATION_TYPE": "U", "NORAD_CAT_ID": 34431, "ELEMENT_SET_NO": 999, "REV_AT_EPOCH": 87018, "BSTAR": 0.00094447, "MEAN_MOTION_DOT": 2.413e-05, "MEAN_MOTION_DDOT": 0}, "tle": {"line1": "1 34431U 93036RY  25338.02542207  .00002413  00000+0  94447-3 0  9999", "line2": "2 34431  74.0741 190.9722 0068703 179.0094 181.1205 14.28734360870184"}}, "geometry": {"type": "Point", "coordinates": [-158.44281045599146, 34.595384333663375]}}]}